CCSDS_OMM_VERS = 2.0
CREATION_DATE  = 
ORIGINATOR     = 

OBJECT_NAME    = SL-14 R/B
OBJECT_ID      = 1986-046B
CENTER_NAME    = EARTH
REF_FRAME      = TEME
TIME_SYSTEM    = UTC
MEAN_ELEMENT_THEORY = SGP/SGP4

EPOCH          = 2026-03-19T05:41:17.508480
MEAN_MOTION    = 14.85599431
ECCENTRICITY   = .00226932
INCLINATION    = 82.4788
RA_OF_ASC_NODE = 71.1577
ARG_OF_PERICENTER = 192.6850
MEAN_ANOMALY   = 167.3798

EPHEMERIS_TYPE = 0
CLASSIFICATION_TYPE = U
NORAD_CAT_ID   = 16792
ELEMENT_SET_NO = 999
REV_AT_EPOCH   = 12782
BSTAR          = .46659273E-4
MEAN_MOTION_DOT = .43E-5
MEAN_MOTION_DDOT = 0

CCSDS_OMM_VERS = 2.0
CREATION_DATE  = 
ORIGINATOR     = 

OBJECT_NAME    = SL-14 R/B
OBJECT_ID      = 1986-055B
CENTER_NAME    = EARTH
REF_FRAME      = TEME
TIME_SYSTEM    = UTC
MEAN_ELEMENT_THEORY = SGP/SGP4

EPOCH          = 2026-03-19T14:06:18.444672
MEAN_MOTION    = 14.85651085
ECCENTRICITY   = .0017538
INCLINATION    = 82.5182
RA_OF_ASC_NODE = 117.3694
ARG_OF_PERICENTER = 301.9754
MEAN_ANOMALY   = 219.3949

EPHEMERIS_TYPE = 0
CLASSIFICATION_TYPE = U
NORAD_CAT_ID   = 16882
ELEMENT_SET_NO = 999
REV_AT_EPOCH   = 12083
BSTAR          = .39802E-4
MEAN_MOTION_DOT = .37E-5
MEAN_MOTION_DDOT = 0

CCSDS_OMM_VERS = 2.0
CREATION_DATE  = 
ORIGINATOR     = 

OBJECT_NAME    = AJISAI (EGS)
OBJECT_ID      = 1986-061A
CENTER_NAME    = EARTH
REF_FRAME      = TEME
TIME_SYSTEM    = UTC
MEAN_ELEMENT_THEORY = SGP/SGP4

EPOCH          = 2026-03-19T21:41:45.252672
MEAN_MOTION    = 12.44515678
ECCENTRICITY   = .0011307
INCLINATION    = 50.0093
RA_OF_ASC_NODE = 61.9372
ARG_OF_PERICENTER = 313.3526
MEAN_ANOMALY   = 69.0139

EPHEMERIS_TYPE = 0
CLASSIFICATION_TYPE = U
NORAD_CAT_ID   = 16908
ELEMENT_SET_NO = 999
REV_AT_EPOCH   = 46927
BSTAR          = -.93789E-4
MEAN_MOTION_DOT = -.111E-5
MEAN_MOTION_DDOT = 0

CCSDS_OMM_VERS = 2.0
CREATION_DATE  = 
ORIGINATOR     = 

OBJECT_NAME    = SL-14 R/B
OBJECT_ID      = 1987-024B
CENTER_NAME    = EARTH
REF_FRAME      = TEME
TIME_SYSTEM    = UTC
MEAN_ELEMENT_THEORY = SGP/SGP4

EPOCH          = 2026-03-19T01:33:30.372768
MEAN_MOTION    = 14.86140912
ECCENTRICITY   = .00170525
INCLINATION    = 82.5244
RA_OF_ASC_NODE = 83.9491
ARG_OF_PERICENTER = 226.3165
MEAN_ANOMALY   = 133.6639

EPHEMERIS_TYPE = 0
CLASSIFICATION_TYPE = U
NORAD_CAT_ID   = 17567
ELEMENT_SET_NO = 999
REV_AT_EPOCH   = 8952
BSTAR          = .45196222E-4
MEAN_MOTION_DOT = .421E-5
MEAN_MOTION_DDOT = 0

CCSDS_OMM_VERS = 2.0
CREATION_DATE  = 
ORIGINATOR     = 

OBJECT_NAME    = COSMOS 1833
OBJECT_ID      = 1987-027A
CENTER_NAME    = EARTH
REF_FRAME      = TEME
TIME_SYSTEM    = UTC
MEAN_ELEMENT_THEORY = SGP/SGP4

EPOCH          = 2026-03-19T20:11:56.552928
MEAN_MOTION    = 14.13051530
ECCENTRICITY   = .0023745
INCLINATION    = 70.9196
RA_OF_ASC_NODE = 304.6823
ARG_OF_PERICENTER = 199.9270
MEAN_ANOMALY   = 160.0926

EPHEMERIS_TYPE = 0
CLASSIFICATION_TYPE = U
NORAD_CAT_ID   = 17589
ELEMENT_SET_NO = 999
REV_AT_EPOCH   = 1175
BSTAR          = -.10075E-3
MEAN_MOTION_DOT = -.237E-5
MEAN_MOTION_DDOT = 0

CCSDS_OMM_VERS = 2.0
CREATION_DATE  = 
ORIGINATOR     = 

OBJECT_NAME    = SL-16 R/B
OBJECT_ID      = 1987-027B
CENTER_NAME    = EARTH
REF_FRAME      = TEME
TIME_SYSTEM    = UTC
MEAN_ELEMENT_THEORY = SGP/SGP4

EPOCH          = 2026-03-19T20:33:16.790976
MEAN_MOTION    = 14.17166703
ECCENTRICITY   = .000305
INCLINATION    = 70.9993
RA_OF_ASC_NODE = 255.0689
ARG_OF_PERICENTER = 119.1502
MEAN_ANOMALY   = 240.9927

EPHEMERIS_TYPE = 0
CLASSIFICATION_TYPE = U
NORAD_CAT_ID   = 17590
ELEMENT_SET_NO = 999
REV_AT_EPOCH   = 1678
BSTAR          = -.27999E-4
MEAN_MOTION_DOT = -.104E-5
MEAN_MOTION_DDOT = 0

CCSDS_OMM_VERS = 2.0
CREATION_DATE  = 
ORIGINATOR     = 

OBJECT_NAME    = SL-14 R/B
OBJECT_ID      = 1987-038B
CENTER_NAME    = EARTH
REF_FRAME      = TEME
TIME_SYSTEM    = UTC
MEAN_ELEMENT_THEORY = SGP/SGP4

EPOCH          = 2026-03-19T16:06:15.405696
MEAN_MOTION    = 14.85377715
ECCENTRICITY   = .002042
INCLINATION    = 82.4985
RA_OF_ASC_NODE = 287.4031
ARG_OF_PERICENTER = 128.8663
MEAN_ANOMALY   = 231.4379

EPHEMERIS_TYPE = 0
CLASSIFICATION_TYPE = U
NORAD_CAT_ID   = 17912
ELEMENT_SET_NO = 999
REV_AT_EPOCH   = 8071
BSTAR          = .40453E-4
MEAN_MOTION_DOT = .374E-5
MEAN_MOTION_DDOT = 0

CCSDS_OMM_VERS = 2.0
CREATION_DATE  = 
ORIGINATOR     = 

OBJECT_NAME    = COSMOS 1844
OBJECT_ID      = 1987-041A
CENTER_NAME    = EARTH
REF_FRAME      = TEME
TIME_SYSTEM    = UTC
MEAN_ELEMENT_THEORY = SGP/SGP4

EPOCH          = 2026-03-19T20:47:03.866208
MEAN_MOTION    = 14.14551421
ECCENTRICITY   = .0030532
INCLINATION    = 70.9009
RA_OF_ASC_NODE = 12.7113
ARG_OF_PERICENTER = 3.0163
MEAN_ANOMALY   = 357.1136

EPHEMERIS_TYPE = 0
CLASSIFICATION_TYPE = U
NORAD_CAT_ID   = 17973
ELEMENT_SET_NO = 999
REV_AT_EPOCH   = 502
BSTAR          = .57404E-4
MEAN_MOTION_DOT = .62E-6
MEAN_MOTION_DDOT = 0

CCSDS_OMM_VERS = 2.0
CREATION_DATE  = 
ORIGINATOR     = 

OBJECT_NAME    = SL-14 R/B
OBJECT_ID      = 1987-055B
CENTER_NAME    = EARTH
REF_FRAME      = TEME
TIME_SYSTEM    = UTC
MEAN_ELEMENT_THEORY = SGP/SGP4

EPOCH          = 2026-03-19T18:44:24.791136
MEAN_MOTION    = 14.85639718
ECCENTRICITY   = .0020232
INCLINATION    = 82.5024
RA_OF_ASC_NODE = 339.5231
ARG_OF_PERICENTER = 344.5978
MEAN_ANOMALY   = 15.4619

EPHEMERIS_TYPE = 0
CLASSIFICATION_TYPE = U
NORAD_CAT_ID   = 18153
ELEMENT_SET_NO = 999
REV_AT_EPOCH   = 7143
BSTAR          = .42634E-4
MEAN_MOTION_DOT = .395E-5
MEAN_MOTION_DDOT = 0

CCSDS_OMM_VERS = 2.0
CREATION_DATE  = 
ORIGINATOR     = 

OBJECT_NAME    = COSMOS 1867
OBJECT_ID      = 1987-060A
CENTER_NAME    = EARTH
REF_FRAME      = TEME
TIME_SYSTEM    = UTC
MEAN_ELEMENT_THEORY = SGP/SGP4

EPOCH          = 2026-03-19T20:24:54.978048
MEAN_MOTION    = 14.31504548
ECCENTRICITY   = .001465
INCLINATION    = 65.0095
RA_OF_ASC_NODE = 278.2489
ARG_OF_PERICENTER = 279.2677
MEAN_ANOMALY   = 80.6751

EPHEMERIS_TYPE = 0
CLASSIFICATION_TYPE = U
NORAD_CAT_ID   = 18187
ELEMENT_SET_NO = 999
REV_AT_EPOCH   = 2139
BSTAR          = .22702E-4
MEAN_MOTION_DOT = -.4E-6
MEAN_MOTION_DDOT = 0

CCSDS_OMM_VERS = 2.0
CREATION_DATE  = 
ORIGINATOR     = 

OBJECT_NAME    = SL-14 R/B
OBJECT_ID      = 1988-001B
CENTER_NAME    = EARTH
REF_FRAME      = TEME
TIME_SYSTEM    = UTC
MEAN_ELEMENT_THEORY = SGP/SGP4

EPOCH          = 2026-03-19T18:38:42.424224
MEAN_MOTION    = 14.85539045
ECCENTRICITY   = .0017542
INCLINATION    = 82.5161
RA_OF_ASC_NODE = 185.8755
ARG_OF_PERICENTER = 200.5633
MEAN_ANOMALY   = 159.4880

EPHEMERIS_TYPE = 0
CLASSIFICATION_TYPE = U
NORAD_CAT_ID   = 18749
ELEMENT_SET_NO = 999
REV_AT_EPOCH   = 4352
BSTAR          = .49675E-4
MEAN_MOTION_DOT = .454E-5
MEAN_MOTION_DDOT = 0

CCSDS_OMM_VERS = 2.0
CREATION_DATE  = 
ORIGINATOR     = 

OBJECT_NAME    = COSMOS 1933
OBJECT_ID      = 1988-020A
CENTER_NAME    = EARTH
REF_FRAME      = TEME
TIME_SYSTEM    = UTC
MEAN_ELEMENT_THEORY = SGP/SGP4

EPOCH          = 2026-03-19T19:25:36.566400
MEAN_MOTION    = 15.18073807
ECCENTRICITY   = .0004684
INCLINATION    = 82.5105
RA_OF_ASC_NODE = 240.8964
ARG_OF_PERICENTER = 149.2126
MEAN_ANOMALY   = 210.9383

EPHEMERIS_TYPE = 0
CLASSIFICATION_TYPE = U
NORAD_CAT_ID   = 18958
ELEMENT_SET_NO = 999
REV_AT_EPOCH   = 5176
BSTAR          = .18891E-3
MEAN_MOTION_DOT = .3879E-4
MEAN_MOTION_DDOT = 0

