SL-14 R/B               
1 16792U 86046B   26078.23700820  .00000430  00000+0  46659-4 0  9994
2 16792  82.4788  71.1577 0022693 192.6850 167.3798 14.85599431127825
SL-14 R/B               
1 16882U 86055B   26078.58771348  .00000370  00000+0  39802-4 0  9990
2 16882  82.5182 117.3694 0017538 301.9754 219.3949 14.85651085120831
AJISAI (EGS)            
1 16908U 86061A   26078.90399598 -.00000111  00000+0 -93789-4 0  9994
2 16908  50.0093  61.9372 0011307 313.3526  69.0139 12.44515678469275
SL-14 R/B               
1 17567U 87024B   26078.06493487  .00000421  00000+0  45196-4 0  9996
2 17567  82.5244  83.9491 0017052 226.3165 133.6639 14.86140912 89528
COSMOS 1833             
1 17589U 87027A   26078.84162677 -.00000237  00000+0 -10075-3 0  9997
2 17589  70.9196 304.6823 0023745 199.9270 160.0926 14.13051530 11759
SL-16 R/B               
1 17590U 87027B   26078.85644434 -.00000104  00000+0 -27999-4 0  9993
2 17590  70.9993 255.0689 0003050 119.1502 240.9927 14.17166703 16784
SL-14 R/B               
1 17912U 87038B   26078.67101164  .00000374  00000+0  40453-4 0  9998
2 17912  82.4985 287.4031 0020420 128.8663 231.4379 14.85377715 80718
COSMOS 1844             
1 17973U 87041A   26078.86601697  .00000062  00000+0  57404-4 0  9994
2 17973  70.9009  12.7113 0030532   3.0163 357.1136 14.14551421  5026
SL-14 R/B               
1 18153U 87055B   26078.78084249  .00000395  00000+0  42634-4 0  9997
2 18153  82.5024 339.5231 0020232 344.5978  15.4619 14.85639718 71439
COSMOS 1867             
1 18187U 87060A   26078.85063632 -.00000040  00000+0  22702-4 0  9993
2 18187  65.0095 278.2489 0014650 279.2677  80.6751 14.31504548 21395
SL-14 R/B               
1 18749U 88001B   26078.77687991  .00000454  00000+0  49675-4 0  9990
2 18749  82.5161 185.8755 0017542 200.5633 159.4880 14.85539045 43524
COSMOS 1933             
1 18958U 88020A   26078.80945100  .00003879  00000+0  18891-3 0  9995
2 18958  82.5105 240.8964 0004684 149.2126 210.9383 15.18073807 51769
